[
    {
        "Altitude(m)": 617719.7179872564,
        "Argument of Periapsis(deg)": 0.0,
        "Eccentricity": 0.0,
        "Inclination(deg)": 60.0,
        "Latitude(deg)": -41.102496743667714,
        "Longitude(deg)": 90.09464235539527,
        "Mean Anomaly(deg)": -130.90909999999997,
        "RAAN(deg)": 340.00000000000006,
        "Satellite Name": "Test1 1510",
        "Satellite Number": 1510,
        "Semi-Major Axis(m)": 6980739.136638005,
        "Time(s)": 0
    },
    {
        "Altitude(m)": 617911.2538002149,
        "Argument of Periapsis(deg)": 0.00010418945913296404,
        "Eccentricity": 0.0,
        "Inclination(deg)": 60.0,
        "Latitude(deg)": -41.56568878643585,
        "Longitude(deg)": 90.59904771589268,
        "Mean Anomaly(deg)": -130.2889938545381,
        "RAAN(deg)": 339.99957995086027,
        "Satellite Name": "Test1 1510",
        "Satellite Number": 1510,
        "Semi-Major Axis(m)": 6980739.136638005,
        "Time(s)": 10
    }
]